[{"OBJECT_NAME":"ONEWEB-0107","OBJECT_ID":"2021-025G","EPOCH":"2025-10-20T03:29:02.907456","MEAN_MOTION":13.13482466,"ECCENTRICITY":0.00028643,"INCLINATION":87.9058,"RA_OF_ASC_NODE":7.9057,"ARG_OF_PERICENTER":98.2936,"MEAN_ANOMALY":261.8518,"EPHEMERIS_TYPE":0,"CLASSIFICATION_TYPE":"U","NORAD_CAT_ID":48048,"ELEMENT_SET_NO":999,"REV_AT_EPOCH":22201,"BSTAR":0.00028879448,"MEAN_MOTION_DOT":1.18e-6,"MEAN_MOTION_DDOT":0},{"OBJECT_NAME":"ONEWEB-0101","OBJECT_ID":"2021-025H","EPOCH":"2025-10-20T06:14:51.269568","MEAN_MOTION":13.13471583,"ECCENTRICITY":0.00019822,"INCLINATION":87.9041,"RA_OF_ASC_NODE":7.9153,"ARG_OF_PERICENTER":102.483,"MEAN_ANOMALY":257.6521,"EPHEMERIS_TYPE":0,"CLASSIFICATION_TYPE":"U","NORAD_CAT_ID":48049,"ELEMENT_SET_NO":999,"REV_AT_EPOCH":22200,"BSTAR":4.3781329e-5,"MEAN_MOTION_DOT":2.9e-7,"MEAN_MOTION_DDOT":0},{"OBJECT_NAME":"ONEWEB-0113","OBJECT_ID":"2021-025J","EPOCH":"2025-10-20T07:08:22.831008","MEAN_MOTION":13.13948406,"ECCENTRICITY":0.00028157,"INCLINATION":87.9022,"RA_OF_ASC_NODE":7.8474,"ARG_OF_PERICENTER":17.2272,"MEAN_ANOMALY":342.8952,"EPHEMERIS_TYPE":0,"CLASSIFICATION_TYPE":"U","NORAD_CAT_ID":48050,"ELEMENT_SET_NO":999,"REV_AT_EPOCH":22210,"BSTAR":0.0054624451,"MEAN_MOTION_DOT":2.022e-5,"MEAN_MOTION_DDOT":0},{"OBJECT_NAME":"ONEWEB-0112","OBJECT_ID":"2021-025K","EPOCH":"2025-10-20T05:26:05.178048","MEAN_MOTION":13.1347084,"ECCENTRICITY":0.00018197,"INCLINATION":87.9049,"RA_OF_ASC_NODE":7.8814,"ARG_OF_PERICENTER":97.4874,"MEAN_ANOMALY":262.6462,"EPHEMERIS_TYPE":0,"CLASSIFICATION_TYPE":"U","NORAD_CAT_ID":48051,"ELEMENT_SET_NO":999,"REV_AT_EPOCH":22209,"BSTAR":-0.0003211981,"MEAN_MOTION_DOT":-1.05e-6,"MEAN_MOTION_DDOT":0},{"OBJECT_NAME":"ONEWEB-0156","OBJECT_ID":"2021-025L","EPOCH":"2025-10-20T05:38:16.616256","MEAN_MOTION":13.13470342,"ECCENTRICITY":0.00019064,"INCLINATION":87.9051,"RA_OF_ASC_NODE":7.8921,"ARG_OF_PERICENTER":96.7386,"MEAN_ANOMALY":263.396,"EPHEMERIS_TYPE":0,"CLASSIFICATION_TYPE":"U","NORAD_CAT_ID":48052,"ELEMENT_SET_NO":999,"REV_AT_EPOCH":22207,"BSTAR":-0.000833399,"MEAN_MOTION_DOT":-2.92e-6,"MEAN_MOTION_DDOT":0},{"OBJECT_NAME":"ONEWEB-0161","OBJECT_ID":"2021-025M","EPOCH":"2025-10-20T06:51:24.969888","MEAN_MOTION":13.13469259,"ECCENTRICITY":0.00019927,"INCLINATION":87.9042,"RA_OF_ASC_NODE":7.9005,"ARG_OF_PERICENTER":96.9916,"MEAN_ANOMALY":263.144,"EPHEMERIS_TYPE":0,"CLASSIFICATION_TYPE":"U","NORAD_CAT_ID":48053,"ELEMENT_SET_NO":999,"REV_AT_EPOCH":22201,"BSTAR":0.00085564015,"MEAN_MOTION_DOT":3.25e-6,"MEAN_MOTION_DDOT":0},{"OBJECT_NAME":"ONEWEB-0158","OBJECT_ID":"2021-025N","EPOCH":"2025-10-20T05:52:54.025536","MEAN_MOTION":13.13471062,"ECCENTRICITY":0.00016861,"INCLINATION":87.9047,"RA_OF_ASC_NODE":7.8896,"ARG_OF_PERICENTER":110.4954,"MEAN_ANOMALY":249.6356,"EPHEMERIS_TYPE":0,"CLASSIFICATION_TYPE":"U","NORAD_CAT_ID":48054,"ELEMENT_SET_NO":999,"REV_AT_EPOCH":22213,"BSTAR":-0.00064062645,"MEAN_MOTION_DOT":-2.21e-6,"MEAN_MOTION_DDOT":0},{"OBJECT_NAME":"ONEWEB-0157","OBJECT_ID":"2021-025P","EPOCH":"2025-10-20T06:29:28.792896","MEAN_MOTION":13.13470049,"ECCENTRICITY":0.00022449,"INCLINATION":87.9046,"RA_OF_ASC_NODE":7.8916,"ARG_OF_PERICENTER":96.2763,"MEAN_ANOMALY":263.8622,"EPHEMERIS_TYPE":0,"CLASSIFICATION_TYPE":"U","NORAD_CAT_ID":48055,"ELEMENT_SET_NO":999,"REV_AT_EPOCH":22207,"BSTAR":0.00071841887,"MEAN_MOTION_DOT":2.75e-6,"MEAN_MOTION_DDOT":0},{"OBJECT_NAME":"ONEWEB-0162","OBJECT_ID":"2021-025Q","EPOCH":"2025-10-20T05:55:08.777568","MEAN_MOTION":13.13470852,"ECCENTRICITY":0.00018551,"INCLINATION":87.905,"RA_OF_ASC_NODE":7.8968,"ARG_OF_PERICENTER":98.9771,"MEAN_ANOMALY":261.1568,"EPHEMERIS_TYPE":0,"CLASSIFICATION_TYPE":"U","NORAD_CAT_ID":48056,"ELEMENT_SET_NO":999,"REV_AT_EPOCH":22204,"BSTAR":-0.00078069592,"MEAN_MOTION_DOT":-2.72e-6,"MEAN_MOTION_DDOT":0},{"OBJECT_NAME":"ONEWEB-0155","OBJECT_ID":"2021-025R","EPOCH":"2025-10-20T06:05:03.937920","MEAN_MOTION":13.13467744,"ECCENTRICITY":0.00020186,"INCLINATION":87.9046,"RA_OF_ASC_NODE":7.9015,"ARG_OF_PERICENTER":103.5685,"MEAN_ANOMALY":256.5669,"EPHEMERIS_TYPE":0,"CLASSIFICATION_TYPE":"U","NORAD_CAT_ID":48057,"ELEMENT_SET_NO":999,"REV_AT_EPOCH":22218,"BSTAR":-0.00040402442,"MEAN_MOTION_DOT":-1.35e-6,"MEAN_MOTION_DDOT":0},{"OBJECT_NAME":"ONEWEB-0149","OBJECT_ID":"2021-025S","EPOCH":"2025-10-20T06:36:46.986048","MEAN_MOTION":13.13470074,"ECCENTRICITY":0.00017947,"INCLINATION":87.9047,"RA_OF_ASC_NODE":7.8912,"ARG_OF_PERICENTER":94.1288,"MEAN_ANOMALY":266.0046,"EPHEMERIS_TYPE":0,"CLASSIFICATION_TYPE":"U","NORAD_CAT_ID":48058,"ELEMENT_SET_NO":999,"REV_AT_EPOCH":22199,"BSTAR":0.0010137682,"MEAN_MOTION_DOT":3.83e-6,"MEAN_MOTION_DDOT":0},{"OBJECT_NAME":"ONEWEB-0148","OBJECT_ID":"2021-025T","EPOCH":"2025-10-20T05:43:08.696640","MEAN_MOTION":13.13468924,"ECCENTRICITY":0.00018919,"INCLINATION":87.904,"RA_OF_ASC_NODE":7.9216,"ARG_OF_PERICENTER":80.9528,"MEAN_ANOMALY":279.1815,"EPHEMERIS_TYPE":0,"CLASSIFICATION_TYPE":"U","NORAD_CAT_ID":48059,"ELEMENT_SET_NO":999,"REV_AT_EPOCH":22211,"BSTAR":-0.00091886293,"MEAN_MOTION_DOT":-3.23e-6,"MEAN_MOTION_DDOT":0},{"OBJECT_NAME":"ONEWEB-0160","OBJECT_ID":"2021-025U","EPOCH":"2025-10-20T06:07:31.135872","MEAN_MOTION":13.13471332,"ECCENTRICITY":0.00012585,"INCLINATION":87.904,"RA_OF_ASC_NODE":7.9155,"ARG_OF_PERICENTER":121.0929,"MEAN_ANOMALY":239.0323,"EPHEMERIS_TYPE":0,"CLASSIFICATION_TYPE":"U","NORAD_CAT_ID":48060,"ELEMENT_SET_NO":999,"REV_AT_EPOCH":22206,"BSTAR":-0.00033961783,"MEAN_MOTION_DOT":-1.11e-6,"MEAN_MOTION_DDOT":0},{"OBJECT_NAME":"ONEWEB-0163","OBJECT_ID":"2021-025V","EPOCH":"2025-10-20T05:45:34.362720","MEAN_MOTION":13.13470408,"ECCENTRICITY":0.00020936,"INCLINATION":87.9046,"RA_OF_ASC_NODE":7.9008,"ARG_OF_PERICENTER":98.9695,"MEAN_ANOMALY":261.1672,"EPHEMERIS_TYPE":0,"CLASSIFICATION_TYPE":"U","NORAD_CAT_ID":48061,"ELEMENT_SET_NO":999,"REV_AT_EPOCH":22218,"BSTAR":-0.0020168333,"MEAN_MOTION_DOT":-7.24e-6,"MEAN_MOTION_DDOT":0},{"OBJECT_NAME":"ONEWEB-0159","OBJECT_ID":"2021-025W","EPOCH":"2025-10-20T05:33:23.553504","MEAN_MOTION":13.13471086,"ECCENTRICITY":0.0001978,"INCLINATION":87.9051,"RA_OF_ASC_NODE":7.8854,"ARG_OF_PERICENTER":95.1683,"MEAN_ANOMALY":264.9672,"EPHEMERIS_TYPE":0,"CLASSIFICATION_TYPE":"U","NORAD_CAT_ID":48062,"ELEMENT_SET_NO":999,"REV_AT_EPOCH":22210,"BSTAR":-0.00056116744,"MEAN_MOTION_DOT":-1.92e-6,"MEAN_MOTION_DDOT":0},{"OBJECT_NAME":"ONEWEB-0164","OBJECT_ID":"2021-025X","EPOCH":"2025-10-20T06:56:16.979424","MEAN_MOTION":13.13470163,"ECCENTRICITY":0.00017774,"INCLINATION":87.9049,"RA_OF_ASC_NODE":7.8823,"ARG_OF_PERICENTER":102.8345,"MEAN_ANOMALY":257.2983,"EPHEMERIS_TYPE":0,"CLASSIFICATION_TYPE":"U","NORAD_CAT_ID":48063,"ELEMENT_SET_NO":999,"REV_AT_EPOCH":22209,"BSTAR":0.00066400436,"MEAN_MOTION_DOT":2.55e-6,"MEAN_MOTION_DDOT":0},{"OBJECT_NAME":"ONEWEB-0167","OBJECT_ID":"2021-025Y","EPOCH":"2025-10-20T05:46:47.407872","MEAN_MOTION":13.13469692,"ECCENTRICITY":0.00025355,"INCLINATION":87.9038,"RA_OF_ASC_NODE":7.9234,"ARG_OF_PERICENTER":109.3288,"MEAN_ANOMALY":250.8115,"EPHEMERIS_TYPE":0,"CLASSIFICATION_TYPE":"U","NORAD_CAT_ID":48064,"ELEMENT_SET_NO":999,"REV_AT_EPOCH":22207,"BSTAR":-0.0016138947,"MEAN_MOTION_DOT":-5.77e-6,"MEAN_MOTION_DDOT":0}]
