ONEWEB-0107             
1 48048U 21025G   25293.14517254  .00000118  00000+0  28879-3 0  9990
2 48048  87.9058   7.9057 0002864  98.2936 261.8518 13.13482466222014
ONEWEB-0101             
1 48049U 21025H   25293.26031562  .00000029  00000+0  43781-4 0  9998
2 48049  87.9041   7.9153 0001982 102.4830 257.6521 13.13471583222009
ONEWEB-0113             
1 48050U 21025J   25293.29748647  .00002022  00000+0  54624-2 0  9993
2 48050  87.9022   7.8474 0002815  17.2272 342.8952 13.13948406222103
ONEWEB-0112             
1 48051U 21025K   25293.22644882 -.00000105  00000+0 -32120-3 0  9993
2 48051  87.9049   7.8814 0001819  97.4874 262.6462 13.13470840222097
ONEWEB-0156             
1 48052U 21025L   25293.23491454 -.00000292  00000+0 -83340-3 0  9997
2 48052  87.9051   7.8921 0001906  96.7386 263.3960 13.13470342222073
ONEWEB-0161             
1 48053U 21025M   25293.28570567  .00000325  00000+0  85564-3 0  9991
2 48053  87.9042   7.9005 0001992  96.9916 263.1440 13.13469259222014
ONEWEB-0158             
1 48054U 21025N   25293.24506974 -.00000221  00000+0 -64063-3 0  9997
2 48054  87.9047   7.8896 0001686 110.4954 249.6356 13.13471062222134
ONEWEB-0157             
1 48055U 21025P   25293.27047214  .00000275  00000+0  71842-3 0  9998
2 48055  87.9046   7.8916 0002244  96.2763 263.8622 13.13470049222078
ONEWEB-0162             
1 48056U 21025Q   25293.24662937 -.00000272  00000+0 -78070-3 0  9990
2 48056  87.9050   7.8968 0001855  98.9771 261.1568 13.13470852222045
ONEWEB-0155             
1 48057U 21025R   25293.25351780 -.00000135  00000+0 -40402-3 0  9999
2 48057  87.9046   7.9015 0002018 103.5685 256.5669 13.13467744222185
ONEWEB-0149             
1 48058U 21025S   25293.27554382  .00000383  00000+0  10138-2 0  9990
2 48058  87.9047   7.8912 0001794  94.1288 266.0046 13.13470074221999
ONEWEB-0148             
1 48059U 21025T   25293.23829510 -.00000323  00000+0 -91886-3 0  9991
2 48059  87.9040   7.9216 0001891  80.9528 279.1815 13.13468924222114
ONEWEB-0160             
1 48060U 21025U   25293.25522148 -.00000111  00000+0 -33962-3 0  9998
2 48060  87.9040   7.9155 0001258 121.0929 239.0323 13.13471332222067
ONEWEB-0163             
1 48061U 21025V   25293.23998105 -.00000724  00000+0 -20168-2 0  9990
2 48061  87.9046   7.9008 0002093  98.9695 261.1672 13.13470408222180
ONEWEB-0159             
1 48062U 21025W   25293.23152261 -.00000192  00000+0 -56117-3 0  9999
2 48062  87.9051   7.8854 0001978  95.1683 264.9672 13.13471086222108
ONEWEB-0164             
1 48063U 21025X   25293.28908541  .00000255  00000+0  66400-3 0  9999
2 48063  87.9049   7.8823 0001777 102.8345 257.2983 13.13470163222093
ONEWEB-0167             
1 48064U 21025Y   25293.24082648 -.00000577  00000+0 -16139-2 0  9999
2 48064  87.9038   7.9234 0002535 109.3288 250.8115 13.13469692222079
